CCSDS_OMM_VERS = 2.0
CREATION_DATE  = 
ORIGINATOR     = 

OBJECT_NAME    = SL-3 R/B
OBJECT_ID      = 1982-079B
CENTER_NAME    = EARTH
REF_FRAME      = TEME
TIME_SYSTEM    = UTC
MEAN_ELEMENT_THEORY = SGP/SGP4

EPOCH          = 2026-05-23T10:56:50.269632
MEAN_MOTION    = 15.25541704
ECCENTRICITY   = .0022475
INCLINATION    = 81.1449
RA_OF_ASC_NODE = 104.7327
ARG_OF_PERICENTER = 273.0145
MEAN_ANOMALY   = 86.8517

EPHEMERIS_TYPE = 0
CLASSIFICATION_TYPE = U
NORAD_CAT_ID   = 13403
ELEMENT_SET_NO = 999
REV_AT_EPOCH   = 38909
BSTAR          = .14007E-3
MEAN_MOTION_DOT = .3603E-4
MEAN_MOTION_DDOT = 0

CCSDS_OMM_VERS = 2.0
CREATION_DATE  = 
ORIGINATOR     = 

OBJECT_NAME    = SL-14 R/B
OBJECT_ID      = 1982-092B
CENTER_NAME    = EARTH
REF_FRAME      = TEME
TIME_SYSTEM    = UTC
MEAN_ELEMENT_THEORY = SGP/SGP4

EPOCH          = 2026-05-23T07:04:28.763040
MEAN_MOTION    = 14.86725330
ECCENTRICITY   = .0021707
INCLINATION    = 82.5685
RA_OF_ASC_NODE = 71.5921
ARG_OF_PERICENTER = 56.1838
MEAN_ANOMALY   = 59.1722

EPHEMERIS_TYPE = 0
CLASSIFICATION_TYPE = U
NORAD_CAT_ID   = 13553
ELEMENT_SET_NO = 999
REV_AT_EPOCH   = 34001
BSTAR          = .36944E-4
MEAN_MOTION_DOT = .355E-5
MEAN_MOTION_DDOT = 0

CCSDS_OMM_VERS = 2.0
CREATION_DATE  = 
ORIGINATOR     = 

OBJECT_NAME    = SL-3 R/B
OBJECT_ID      = 1983-010B
CENTER_NAME    = EARTH
REF_FRAME      = TEME
TIME_SYSTEM    = UTC
MEAN_ELEMENT_THEORY = SGP/SGP4

EPOCH          = 2026-05-23T10:40:45.562656
MEAN_MOTION    = 15.48441782
ECCENTRICITY   = .0016262
INCLINATION    = 81.1015
RA_OF_ASC_NODE = 270.4189
ARG_OF_PERICENTER = 145.3302
MEAN_ANOMALY   = 214.9008

EPHEMERIS_TYPE = 0
CLASSIFICATION_TYPE = U
NORAD_CAT_ID   = 13819
ELEMENT_SET_NO = 999
REV_AT_EPOCH   = 36950
BSTAR          = .25226E-3
MEAN_MOTION_DOT = .13492E-3
MEAN_MOTION_DDOT = 0

CCSDS_OMM_VERS = 2.0
CREATION_DATE  = 
ORIGINATOR     = 

OBJECT_NAME    = SL-3 R/B
OBJECT_ID      = 1983-075B
CENTER_NAME    = EARTH
REF_FRAME      = TEME
TIME_SYSTEM    = UTC
MEAN_ELEMENT_THEORY = SGP/SGP4

EPOCH          = 2026-05-23T12:16:43.681152
MEAN_MOTION    = 15.39975842
ECCENTRICITY   = .0019516
INCLINATION    = 97.6115
RA_OF_ASC_NODE = 151.0173
ARG_OF_PERICENTER = 326.2321
MEAN_ANOMALY   = 33.7680

EPHEMERIS_TYPE = 0
CLASSIFICATION_TYPE = U
NORAD_CAT_ID   = 14208
ELEMENT_SET_NO = 999
REV_AT_EPOCH   = 34166
BSTAR          = .18873E-3
MEAN_MOTION_DOT = .7481E-4
MEAN_MOTION_DDOT = 0

CCSDS_OMM_VERS = 2.0
CREATION_DATE  = 
ORIGINATOR     = 

OBJECT_NAME    = COSMOS 1536
OBJECT_ID      = 1984-013A
CENTER_NAME    = EARTH
REF_FRAME      = TEME
TIME_SYSTEM    = UTC
MEAN_ELEMENT_THEORY = SGP/SGP4

EPOCH          = 2026-05-23T10:10:17.477760
MEAN_MOTION    = 15.24753175
ECCENTRICITY   = .001505
INCLINATION    = 82.5459
RA_OF_ASC_NODE = 33.5019
ARG_OF_PERICENTER = 26.5273
MEAN_ANOMALY   = 333.6731

EPHEMERIS_TYPE = 0
CLASSIFICATION_TYPE = U
NORAD_CAT_ID   = 14699
ELEMENT_SET_NO = 999
REV_AT_EPOCH   = 28400
BSTAR          = .19849E-3
MEAN_MOTION_DOT = .4963E-4
MEAN_MOTION_DDOT = 0

CCSDS_OMM_VERS = 2.0
CREATION_DATE  = 
ORIGINATOR     = 

OBJECT_NAME    = SL-14 R/B
OBJECT_ID      = 1984-027B
CENTER_NAME    = EARTH
REF_FRAME      = TEME
TIME_SYSTEM    = UTC
MEAN_ELEMENT_THEORY = SGP/SGP4

EPOCH          = 2026-05-23T12:04:48.645120
MEAN_MOTION    = 14.86039165
ECCENTRICITY   = .0019597
INCLINATION    = 82.5415
RA_OF_ASC_NODE = 174.8652
ARG_OF_PERICENTER = 86.2989
MEAN_ANOMALY   = 274.0468

EPHEMERIS_TYPE = 0
CLASSIFICATION_TYPE = U
NORAD_CAT_ID   = 14820
ELEMENT_SET_NO = 999
REV_AT_EPOCH   = 25874
BSTAR          = .27407E-4
MEAN_MOTION_DOT = .265E-5
MEAN_MOTION_DDOT = 0

CCSDS_OMM_VERS = 2.0
CREATION_DATE  = 
ORIGINATOR     = 

OBJECT_NAME    = SL-8 R/B
OBJECT_ID      = 1985-006B
CENTER_NAME    = EARTH
REF_FRAME      = TEME
TIME_SYSTEM    = UTC
MEAN_ELEMENT_THEORY = SGP/SGP4

EPOCH          = 2026-05-23T09:39:56.799072
MEAN_MOTION    = 14.37820562
ECCENTRICITY   = .0017945
INCLINATION    = 74.0434
RA_OF_ASC_NODE = 123.6709
ARG_OF_PERICENTER = 16.1486
MEAN_ANOMALY   = 135.5814

EPHEMERIS_TYPE = 0
CLASSIFICATION_TYPE = U
NORAD_CAT_ID   = 15483
ELEMENT_SET_NO = 999
REV_AT_EPOCH   = 16476
BSTAR          = .38779E-4
MEAN_MOTION_DOT = .91E-6
MEAN_MOTION_DDOT = 0

CCSDS_OMM_VERS = 2.0
CREATION_DATE  = 
ORIGINATOR     = 

OBJECT_NAME    = SL-12 R/B(2)
OBJECT_ID      = 1985-042D
CENTER_NAME    = EARTH
REF_FRAME      = TEME
TIME_SYSTEM    = UTC
MEAN_ELEMENT_THEORY = SGP/SGP4

EPOCH          = 2026-05-23T13:01:12.741312
MEAN_MOTION    = 14.22000411
ECCENTRICITY   = .0034878
INCLINATION    = 71.1079
RA_OF_ASC_NODE = 289.5834
ARG_OF_PERICENTER = 5.7366
MEAN_ANOMALY   = 60.4495

EPHEMERIS_TYPE = 0
CLASSIFICATION_TYPE = U
NORAD_CAT_ID   = 15772
ELEMENT_SET_NO = 999
REV_AT_EPOCH   = 12503
BSTAR          = .36234E-4
MEAN_MOTION_DOT = .33E-6
MEAN_MOTION_DDOT = 0

CCSDS_OMM_VERS = 2.0
CREATION_DATE  = 
ORIGINATOR     = 

OBJECT_NAME    = SL-14 R/B
OBJECT_ID      = 1985-069B
CENTER_NAME    = EARTH
REF_FRAME      = TEME
TIME_SYSTEM    = UTC
MEAN_ELEMENT_THEORY = SGP/SGP4

EPOCH          = 2026-05-23T12:46:41.767104
MEAN_MOTION    = 14.86493888
ECCENTRICITY   = .00175
INCLINATION    = 82.5252
RA_OF_ASC_NODE = 314.5570
ARG_OF_PERICENTER = 307.3803
MEAN_ANOMALY   = 52.5819

EPHEMERIS_TYPE = 0
CLASSIFICATION_TYPE = U
NORAD_CAT_ID   = 15945
ELEMENT_SET_NO = 999
REV_AT_EPOCH   = 18395
BSTAR          = .30293E-4
MEAN_MOTION_DOT = .293E-5
MEAN_MOTION_DDOT = 0

CCSDS_OMM_VERS = 2.0
CREATION_DATE  = 
ORIGINATOR     = 

OBJECT_NAME    = SL-16 R/B
OBJECT_ID      = 1985-097B
CENTER_NAME    = EARTH
REF_FRAME      = TEME
TIME_SYSTEM    = UTC
MEAN_ELEMENT_THEORY = SGP/SGP4

EPOCH          = 2026-05-23T13:18:26.913024
MEAN_MOTION    = 14.16607308
ECCENTRICITY   = .0006463
INCLINATION    = 71.0030
RA_OF_ASC_NODE = 342.9394
ARG_OF_PERICENTER = 158.4665
MEAN_ANOMALY   = 268.4770

EPHEMERIS_TYPE = 0
CLASSIFICATION_TYPE = U
NORAD_CAT_ID   = 16182
ELEMENT_SET_NO = 999
REV_AT_EPOCH   = 9783
BSTAR          = -.62501E-4
MEAN_MOTION_DOT = -.173E-5
MEAN_MOTION_DDOT = 0

CCSDS_OMM_VERS = 2.0
CREATION_DATE  = 
ORIGINATOR     = 

OBJECT_NAME    = SL-14 R/B
OBJECT_ID      = 1986-006B
CENTER_NAME    = EARTH
REF_FRAME      = TEME
TIME_SYSTEM    = UTC
MEAN_ELEMENT_THEORY = SGP/SGP4

EPOCH          = 2026-05-23T11:44:39.814080
MEAN_MOTION    = 14.86917806
ECCENTRICITY   = .0077018
INCLINATION    = 82.5275
RA_OF_ASC_NODE = 189.3541
ARG_OF_PERICENTER = 25.8494
MEAN_ANOMALY   = 334.6538

EPHEMERIS_TYPE = 0
CLASSIFICATION_TYPE = U
NORAD_CAT_ID   = 16496
ELEMENT_SET_NO = 999
REV_AT_EPOCH   = 16032
BSTAR          = .34509E-4
MEAN_MOTION_DOT = .353E-5
MEAN_MOTION_DDOT = 0

CCSDS_OMM_VERS = 2.0
CREATION_DATE  = 
ORIGINATOR     = 

OBJECT_NAME    = COSMOS 1743
OBJECT_ID      = 1986-034A
CENTER_NAME    = EARTH
REF_FRAME      = TEME
TIME_SYSTEM    = UTC
MEAN_ELEMENT_THEORY = SGP/SGP4

EPOCH          = 2026-05-23T13:00:56.891232
MEAN_MOTION    = 15.64668459
ECCENTRICITY   = .0004771
INCLINATION    = 82.5292
RA_OF_ASC_NODE = 354.8913
ARG_OF_PERICENTER = 30.0227
MEAN_ANOMALY   = 330.1305

EPHEMERIS_TYPE = 0
CLASSIFICATION_TYPE = U
NORAD_CAT_ID   = 16719
ELEMENT_SET_NO = 999
REV_AT_EPOCH   = 19193
BSTAR          = .30799E-3
MEAN_MOTION_DOT = .29906E-3
MEAN_MOTION_DDOT = 0

