SL-3 R/B                
1 13403U 82079B   26143.45613738  .00003603  00000+0  14007-3 0  9996
2 13403  81.1449 104.7327 0022475 273.0145  86.8517 15.25541704389094
SL-14 R/B               
1 13553U 82092B   26143.29477736  .00000355  00000+0  36944-4 0  9991
2 13553  82.5685  71.5921 0021707  56.1838  59.1722 14.86725330340019
SL-3 R/B                
1 13819U 83010B   26143.44497179  .00013492  00000+0  25226-3 0  9993
2 13819  81.1015 270.4189 0016262 145.3302 214.9008 15.48441782369507
SL-3 R/B                
1 14208U 83075B   26143.51161668  .00007481  00000+0  18873-3 0  9997
2 14208  97.6115 151.0173 0019516 326.2321  33.7680 15.39975842341665
COSMOS 1536             
1 14699U 84013A   26143.42381340  .00004963  00000+0  19849-3 0  9991
2 14699  82.5459  33.5019 0015050  26.5273 333.6731 15.24753175284001
SL-14 R/B               
1 14820U 84027B   26143.50334080  .00000265  00000+0  27407-4 0  9991
2 14820  82.5415 174.8652 0019597  86.2989 274.0468 14.86039165258748
SL-8 R/B                
1 15483U 85006B   26143.40274073  .00000091  00000+0  38779-4 0  9990
2 15483  74.0434 123.6709 0017945  16.1486 135.5814 14.37820562164764
SL-12 R/B(2)            
1 15772U 85042D   26143.54250858  .00000033  00000+0  36234-4 0  9991
2 15772  71.1079 289.5834 0034878   5.7366  60.4495 14.22000411125039
SL-14 R/B               
1 15945U 85069B   26143.53242786  .00000293  00000+0  30293-4 0  9999
2 15945  82.5252 314.5570 0017500 307.3803  52.5819 14.86493888183957
SL-16 R/B               
1 16182U 85097B   26143.55447816 -.00000173  00000+0 -62501-4 0  9993
2 16182  71.0030 342.9394 0006463 158.4665 268.4770 14.16607308 97836
SL-14 R/B               
1 16496U 86006B   26143.48934970  .00000353  00000+0  34509-4 0  9991
2 16496  82.5275 189.3541 0077018  25.8494 334.6538 14.86917806160327
COSMOS 1743             
1 16719U 86034A   26143.54232513  .00029906  00000+0  30799-3 0  9992
2 16719  82.5292 354.8913 0004771  30.0227 330.1305 15.64668459191932
